NORAD_CAT_ID,OBJECT_NAME,OBJECT_TYPE,EPOCH,MEAN_MOTION,ECCENTRICITY,INCLINATION,RA_OF_ASC_NODE,ARG_OF_PERICENTER,MEAN_ANOMALY,BSTAR,MEAN_MOTION_DOT,MEAN_MOTION_DDOT,TLE_LINE0,TLE_LINE1,TLE_LINE2,SEMIMAJOR_AXIS,PERIOD,APOGEE,PERIGEE,DECAYED
55760.0,STARLINK-5532,PAYLOAD,2024-04-30 04:48:57,14.98337938,0.0003116,69.9993,154.986,269.2991,90.7811,-1.7255e-05,-2.99e-06,0.0,0 STARLINK-5532,1 55760U 23028V   24121.20066336 -.00000299  00000-0 -17255-4 0  9990,2 55760  69.9993 154.9860 0003116 269.2991  90.7811 14.98337938 64407,6950.168,96.106,574.199,569.868,0.0
55760.0,STARLINK-5532,PAYLOAD,2024-04-30 11:13:29,14.98337444,0.000316,69.9992,154.3128,268.8834,91.1963,-4.103e-05,-5.83e-06,0.0,0 STARLINK-5532,1 55760U 23028V   24121.46770273 -.00000583  00000-0 -41030-4 0  9994,2 55760  69.9992 154.3128 0003160 268.8834  91.1963 14.98337444 64457,6950.17,96.107,574.231,569.839,0.0
55760.0,STARLINK-5532,PAYLOAD,2024-04-30 19:14:09,14.98336189,0.0003184,69.9991,153.4711,269.0803,90.9991,-2.0136e-05,-3.33e-06,0.0,0 STARLINK-5532,1 55760U 23028V   24121.80150147 -.00000333  00000-0 -20136-4 0  9991,2 55760  69.9991 153.4711 0003184 269.0803  90.9991 14.98336189 64508,6950.174,96.107,574.252,569.826,0.0
55760.0,STARLINK-5532,PAYLOAD,2024-05-01 04:50:58,14.98333657,0.0003215,69.999,152.4611,269.1428,90.9363,2.6147e-05,2.19e-06,0.0,0 STARLINK-5532,1 55760U 23028V   24122.20206047  .00000219  00000-0  26147-4 0  9996,2 55760  69.9990 152.4611 0003215 269.1428  90.9363 14.98333657 64559,6950.182,96.107,574.281,569.812,0.0
55760.0,STARLINK-5532,PAYLOAD,2024-05-01 08:03:14,14.98334224,0.0003215,69.999,152.1244,269.216,90.8631,3.1368e-05,2.81e-06,0.0,0 STARLINK-5532,1 55760U 23028V   24122.33557963  .00000281  00000-0  31368-4 0  9996,2 55760  69.9990 152.1244 0003215 269.2160  90.8631 14.98334224 64583,6950.18,96.107,574.279,569.81,0.0
55760.0,STARLINK-5532,PAYLOAD,2024-05-01 19:16:10,14.98332698,0.000323,69.9989,150.9461,269.8936,90.1853,1.1853e-05,4.8e-07,0.0,0 STARLINK-5532,1 55760U 23028V   24122.80289973  .00000048  00000-0  11853-4 0  9999,2 55760  69.9989 150.9461 0003230 269.8936  90.1853 14.98332698 64652,6950.185,96.107,574.294,569.805,0.0
55760.0,STARLINK-5532,PAYLOAD,2024-05-02 04:52:59,14.98327909,0.0003175,69.9987,149.9361,270.0139,90.0656,-3.9365e-05,-5.63e-06,0.0,0 STARLINK-5532,1 55760U 23028V   24123.20346408 -.00000563  00000-0 -39365-4 0  9993,2 55760  69.9987 149.9361 0003175 270.0139  90.0656 14.98327909 64709,6950.199,96.107,574.271,569.858,0.0
55760.0,STARLINK-5532,PAYLOAD,2024-05-02 11:17:31,14.98334183,0.0003075,69.9986,149.2628,270.6186,89.462,4.4928e-05,4.43e-06,0.0,0 STARLINK-5532,1 55760U 23028V   24123.47049770  .00000443  00000-0  44928-4 0  9990,2 55760  69.9986 149.2628 0003075 270.6186  89.4620 14.98334183 64743,6950.18,96.107,574.182,569.908,0.0
55760.0,STARLINK-5532,PAYLOAD,2024-05-03 11:19:32,14.98331734,0.0003073,69.9983,146.7373,269.8324,90.2483,-7.6563e-06,-1.84e-06,0.0,0 STARLINK-5532,1 55760U 23028V   24124.47189863 -.00000184  00000-0 -76563-5 0  9994,2 55760  69.9983 146.7373 0003073 269.8324  90.2483 14.98331734 64893,6950.188,96.107,574.188,569.917,0.0
55760.0,STARLINK-5532,PAYLOAD,2024-05-03 19:20:12,14.98326557,0.0003051,69.9985,145.8955,270.0462,90.0347,1.5746e-05,9.5e-07,0.0,0 STARLINK-5532,1 55760U 23028V   24124.80570114  .00000095  00000-0  15746-4 0  9998,2 55760  69.9985 145.8955 0003051 270.0462  90.0347 14.98326557 64955,6950.204,96.107,574.189,569.948,0.0
55760.0,STARLINK-5532,PAYLOAD,2024-05-04 11:21:33,14.98326644,0.0003093,69.9985,144.2125,270.1599,89.9205,-3.8295e-05,-5.5e-06,0.0,0 STARLINK-5532,1 55760U 23028V   24125.47330406 -.00000550  00000-0 -38295-4 0  9992,2 55760  69.9985 144.2125 0003093 270.1599  89.9205 14.98326644 65043,6950.203,96.107,574.218,569.919,0.0
55760.0,STARLINK-5532,PAYLOAD,2024-05-05 11:23:34,14.98328991,0.0003137,69.9985,141.6878,269.9568,90.1231,1.3323e-05,6.6e-07,0.0,0 STARLINK-5532,1 55760U 23028V   24126.47470268  .00000066  00000-0  13323-4 0  9999,2 55760  69.9985 141.6878 0003137 269.9568  90.1231 14.98328991 65196,6950.196,96.107,574.241,569.881,0.0
55760.0,STARLINK-5532,PAYLOAD,2024-05-06 11:25:35,14.98330982,0.0003169,69.9983,139.1627,270.4323,89.6473,9.0443e-05,9.86e-06,0.0,0 STARLINK-5532,1 55760U 23028V   24127.47610007  .00000986  00000-0  90443-4 0  9996,2 55760  69.9983 139.1627 0003169 270.4323  89.6473 14.98330982 65340,6950.19,96.107,574.257,569.852,0.0
55760.0,STARLINK-5532,PAYLOAD,2024-05-06 17:50:07,14.98332085,0.0003166,69.9983,138.4894,270.3061,89.7736,8.5941e-05,9.33e-06,0.0,0 STARLINK-5532,1 55760U 23028V   24127.74313923  .00000933  00000-0  85941-4 0  9992,2 55760  69.9983 138.4894 0003166 270.3061  89.7736 14.98332085 65397,6950.186,96.107,574.252,569.851,0.0
55760.0,STARLINK-5532,PAYLOAD,2024-05-07 11:27:35,14.98333949,0.0003144,69.9983,136.6379,269.766,90.3139,6.629e-05,6.98e-06,0.0,0 STARLINK-5532,1 55760U 23028V   24128.47749705  .00000698  00000-0  66290-4 0  9998,2 55760  69.9983 136.6379 0003144 269.7660  90.3139 14.98333949 65494,6950.181,96.107,574.231,569.861,0.0
55760.0,STARLINK-5532,PAYLOAD,2024-05-07 17:52:08,14.98332337,0.0003145,69.9983,135.9645,270.3336,89.7463,2.742e-05,2.34e-06,0.0,0 STARLINK-5532,1 55760U 23028V   24128.74453831  .00000234  00000-0  27420-4 0  9998,2 55760  69.9983 135.9645 0003145 270.3336  89.7463 14.98332337 65549,6950.186,96.107,574.236,569.865,0.0
55760.0,STARLINK-5532,PAYLOAD,2024-05-08 09:53:28,14.98331166,0.0003116,69.9985,134.2814,270.3583,89.7219,-9.2511e-06,-2.03e-06,0.0,0 STARLINK-5532,1 55760U 23028V   24129.41213944 -.00000203  00000-0 -92511-5 0  9994,2 55760  69.9985 134.2814 0003116 270.3583  89.7219 14.98331166 65642,6950.189,96.107,574.22,569.889,0.0
55760.0,STARLINK-5532,PAYLOAD,2024-05-08 17:54:09,14.98331727,0.0003119,69.9985,133.4398,270.399,89.6811,-7.2535e-06,-1.8e-06,0.0,0 STARLINK-5532,1 55760U 23028V   24129.74593863 -.00000180  00000-0 -72535-5 0  9999,2 55760  69.9985 133.4398 0003119 270.3990  89.6811 14.98331727 65689,6950.188,96.107,574.22,569.885,0.0
55760.0,STARLINK-5532,PAYLOAD,2024-05-09 09:55:29,14.98333439,0.000313,69.9986,131.7567,270.6717,89.4083,-9.0105e-07,-1.04e-06,0.0,0 STARLINK-5532,1 55760U 23028V   24130.41353627 -.00000104  00000-0 -90105-6 0  9997,2 55760  69.9986 131.7567 0003130 270.6717  89.4083 14.98333439 65795,6950.182,96.107,574.223,569.872,0.0
55760.0,STARLINK-5532,PAYLOAD,2024-05-09 17:56:09,14.98333724,0.0003126,69.9987,130.9149,270.306,89.7741,3.4551e-05,3.19e-06,0.0,0 STARLINK-5532,1 55760U 23028V   24130.74733495  .00000319  00000-0  34551-4 0  9995,2 55760  69.9987 130.9149 0003126 270.3060  89.7741 14.98333724 65832,6950.181,96.107,574.219,569.874,0.0
55760.0,STARLINK-5532,PAYLOAD,2024-05-10 09:57:30,14.98335301,0.0003125,69.9986,129.2315,269.9606,90.1195,8.9738e-05,9.78e-06,0.0,0 STARLINK-5532,1 55760U 23028V   24131.41493134  .00000978  00000-0  89738-4 0  9991,2 55760  69.9986 129.2315 0003125 269.9606  90.1195 14.98335301 65940,6950.176,96.107,574.213,569.87,0.0
55760.0,STARLINK-5532,PAYLOAD,2024-05-11 05:11:07,14.98334574,0.0002832,69.9988,127.2115,271.297,88.7865,-2.5279e-05,-3.95e-06,0.0,0 STARLINK-5532,1 55760U 23028V   24132.21605561 -.00000395  00000-0 -25279-4 0  9994,2 55760  69.9988 127.2115 0002832 271.2970  88.7865 14.98334574 66053,6950.179,96.107,574.012,570.075,0.0
55760.0,STARLINK-5532,PAYLOAD,2024-05-11 08:23:22,14.98370288,0.0002386,69.9989,126.8748,260.0727,100.0163,-0.00042541,-5.17e-05,0.0,0 STARLINK-5532,1 55760U 23028V   24132.34956137 -.00005170  00000-0 -42541-3 0  9992,2 55760  69.9989 126.8748 0002386 260.0727 100.0163 14.98370288 66074,6950.068,96.104,573.592,570.275,0.0
55760.0,STARLINK-5532,PAYLOAD,2024-05-11 16:24:02,14.98340379,0.0002821,69.9992,126.035,265.9752,94.1084,6.9246e-05,7.34e-06,0.0,0 STARLINK-5532,1 55760U 23028V   24132.68336680  .00000734  00000-0  69246-4 0  9995,2 55760  69.9992 126.0350 0002821 265.9752  94.1084 14.98340379 66124,6950.161,96.106,573.986,570.065,0.0
55760.0,STARLINK-5532,PAYLOAD,2024-05-12 05:13:06,14.9835522,0.0002454,70.0006,124.6878,268.3832,91.7046,0.00017788,2.031e-05,0.0,0 STARLINK-5532,1 55760U 23028V   24133.21743098  .00002031  00000-0  17788-3 0  9995,2 55760  70.0006 124.6878 0002454 268.3832  91.7046 14.98355220 66201,6950.115,96.105,573.685,570.274,0.0
55760.0,STARLINK-5532,PAYLOAD,2024-05-12 10:01:33,14.98316847,0.0002466,69.9988,124.1819,280.1418,79.9463,-0.00022364,-2.759e-05,0.0,0 STARLINK-5532,1 55760U 23028V   24133.41774322 -.00002759  00000-0 -22364-3 0  9996,2 55760  69.9988 124.1819 0002466 280.1418  79.9463 14.98316847 66238,6950.234,96.108,573.812,570.385,0.0
55760.0,STARLINK-5532,PAYLOAD,2024-05-12 16:26:05,14.98327035,0.0002865,69.999,123.5084,269.0116,91.0715,-0.00044328,-5.378e-05,0.0,0 STARLINK-5532,1 55760U 23028V   24133.68478045 -.00005378  00000-0 -44328-3 0  9992,2 55760  69.9990 123.5084 0002865 269.0116  91.0715 14.98327035 66272,6950.202,96.107,574.058,570.076,0.0
55760.0,STARLINK-5532,PAYLOAD,2024-05-13 08:27:26,14.98301028,0.0002908,69.9985,121.8251,263.3045,96.7783,6.304e-06,-1.8e-07,0.0,0 STARLINK-5532,1 55760U 23028V   24134.35239373 -.00000018  00000-0  63040-5 0  9995,2 55760  69.9985 121.8251 0002908 263.3045  96.7783 14.98301028 66382,6950.282,96.109,574.169,570.126,0.0
55760.0,STARLINK-5532,PAYLOAD,2024-05-13 16:28:07,14.98313173,0.0002373,69.9989,120.9824,279.3637,80.7254,-0.00013923,-1.753e-05,0.0,0 STARLINK-5532,1 55760U 23028V   24134.68619451 -.00001753  00000-0 -13923-3 0  9991,2 55760  69.9989 120.9824 0002373 279.3637  80.7254 14.98313173 66427,6950.245,96.108,573.759,570.461,0.0
55760.0,STARLINK-5532,PAYLOAD,2024-05-13 22:52:38,14.98320687,0.000318,69.998,120.3088,266.7871,93.2924,-0.00012998,-1.643e-05,0.0,0 STARLINK-5532,1 55760U 23028V   24134.95322725 -.00001643  00000-0 -12998-3 0  9995,2 55760  69.9980 120.3088 0003180 266.7871  93.2924 14.98320687 66477,6950.222,96.108,574.297,569.877,0.0
